{"type":"FeatureCollection","features":[{"type":"Feature","properties":{"codigo":"0001","nombre":"SECCIONAL PRIMERA"},"geometry":{"type":"Polygon","coordinates":[[[-64.17568,-31.41465],[-64.19065,-31.41028],[-64.19107,-31.41143],[-64.19145,-31.41277],[-64.19318,-31.41738],[-64.18789,-31.41897],[-64.18845,-31.42052],[-64.17405,-31.42423],[-64.17433,-31.42138],[-64.1748,-31.41836],[-64.17568,-31.41465]]]}},{"type":"Feature","properties":{"codigo":"0002","nombre":"SECCIONAL SEGUNDA"},"geometry":{"type":"Polygon","coordinates":[[[-64.18878,-31.40694],[-64.18929,-31.40698],[-64.18967,-31.4078],[-64.19065,-31.41028],[-64.17568,-31.41465],[-64.17531,-31.41342],[-64.17554,-31.41208],[-64.1754,-31.41098],[-64.17564,-31.40967],[-64.17615,-31.40751],[-64.17723,-31.40616],[-64.17662,-31.40612],[-64.17587,-31.40555],[-64.17826,-31.40457],[-64.17975,-31.40429],[-64.18621,-31.40429],[-64.1885,-31.40368],[-64.18878,-31.40694]]]}},{"type":"Feature","properties":{"codigo":"0003","nombre":"SECCIONAL TERCERA"},"geometry":{"type":"Polygon","coordinates":[[[-64.2051,-31.39882],[-64.21015,-31.41151],[-64.20651,-31.41261],[-64.20618,-31.41269],[-64.20183,-31.41416],[-64.20103,-31.41473],[-64.20047,-31.41502],[-64.20029,-31.4153],[-64.19855,-31.41575],[-64.1979,-31.41599],[-64.19318,-31.41742],[-64.19159,-31.41318],[-64.19102,-31.41126],[-64.19018,-31.40906],[-64.18929,-31.40698],[-64.18878,-31.40694],[-64.18873,-31.40612],[-64.18925,-31.40625],[-64.19654,-31.40588],[-64.1993,-31.40523],[-64.20225,-31.40412],[-64.20403,-31.40351],[-64.20478,-31.40245],[-64.20463,-31.40009],[-64.20426,-31.3996],[-64.20333,-31.39866],[-64.20276,-31.3978],[-64.20272,-31.39711],[-64.20286,-31.39499],[-64.20337,-31.39433],[-64.2051,-31.39882]]]}},{"type":"Feature","properties":{"codigo":"0004","nombre":"NUEVA CORDOBA"},"geometry":{"type":"Polygon","coordinates":[[[-64.17381,-31.42427],[-64.17503,-31.42403],[-64.18841,-31.42048],[-64.19313,-31.43304],[-64.19318,-31.43317],[-64.19336,-31.4337],[-64.19341,-31.43398],[-64.1979,-31.4443],[-64.18256,-31.44206],[-64.17784,-31.44128],[-64.16872,-31.44047],[-64.16876,-31.43831],[-64.16872,-31.43451],[-64.16923,-31.43394],[-64.1696,-31.43329],[-64.17007,-31.43231],[-64.17007,-31.4319],[-64.16998,-31.42962],[-64.17021,-31.42945],[-64.17017,-31.42921],[-64.16942,-31.42815],[-64.16946,-31.42697],[-64.17026,-31.42538],[-64.17381,-31.42427]]]}},{"type":"Feature","properties":{"codigo":"0005","nombre":"ALTAMIRA"},"geometry":{"type":"Polygon","coordinates":[[[-64.13462,-31.42362],[-64.14033,-31.42305],[-64.14075,-31.42627],[-64.13471,-31.42668],[-64.13462,-31.42831],[-64.13434,-31.42925],[-64.13462,-31.4306],[-64.13317,-31.43047],[-64.13228,-31.43105],[-64.12732,-31.42746],[-64.11923,-31.42746],[-64.11919,-31.42175],[-64.11933,-31.42154],[-64.12073,-31.42187],[-64.12779,-31.42199],[-64.12775,-31.41811],[-64.13425,-31.4182],[-64.13439,-31.4204],[-64.13425,-31.42036],[-64.13462,-31.42362]]]}},{"type":"Feature","properties":{"codigo":"0006","nombre":"ALTO GRAL PAZ"},"geometry":{"type":"Polygon","coordinates":[[[-64.1595,-31.4051],[-64.15735,-31.41134],[-64.15197,-31.40996],[-64.15122,-31.40983],[-64.15034,-31.40951],[-64.14832,-31.40902],[-64.14846,-31.41098],[-64.14856,-31.41159],[-64.14669,-31.41147],[-64.14645,-31.41175],[-64.14566,-31.41175],[-64.14715,-31.4009],[-64.15281,-31.4031],[-64.15366,-31.40359],[-64.1595,-31.4051]]]}},{"type":"Feature","properties":{"codigo":"0007","nombre":"AEROPUERTO"},"geometry":{"type":"Polygon","coordinates":[[[-64.22049,-31.30786],[-64.21675,-31.31594],[-64.21137,-31.32695],[-64.2081,-31.3347],[-64.19865,-31.33454],[-64.19762,-31.33539],[-64.19673,-31.33646],[-64.18672,-31.3365],[-64.18682,-31.33026],[-64.18714,-31.31622],[-64.18312,-31.31329],[-64.18293,-31.3077],[-64.22049,-31.30786]]]}},{"type":"Feature","properties":{"codigo":"0008","nombre":"LA FLORESTA NORTE"},"geometry":{"type":"Polygon","coordinates":[[[-64.07733,-31.3739],[-64.07906,-31.38161],[-64.08107,-31.38911],[-64.06774,-31.38483],[-64.05553,-31.381],[-64.05539,-31.36815],[-64.07733,-31.3739]]]}},{"type":"Feature","properties":{"codigo":"0009","nombre":"ESCOBAR"},"geometry":{"type":"Polygon","coordinates":[[[-64.22222,-31.38344],[-64.22353,-31.38255],[-64.22484,-31.38402],[-64.22657,-31.38614],[-64.22741,-31.38667],[-64.22779,-31.38675],[-64.22835,-31.38732],[-64.22844,-31.38765],[-64.229,-31.38781],[-64.22928,-31.38818],[-64.22966,-31.38813],[-64.23242,-31.38928],[-64.23424,-31.3905],[-64.23209,-31.39156],[-64.22255,-31.39499],[-64.22245,-31.39466],[-64.21988,-31.39568],[-64.21577,-31.39311],[-64.21273,-31.39189],[-64.21516,-31.38964],[-64.21881,-31.38605],[-64.22222,-31.38344]]]}},{"type":"Feature","properties":{"codigo":"0010","nombre":"BELLA VISTA"},"geometry":{"type":"Polygon","coordinates":[[[-64.19117,-31.42774],[-64.19084,-31.42705],[-64.19163,-31.42676],[-64.19182,-31.42729],[-64.19299,-31.42693],[-64.19355,-31.42725],[-64.19458,-31.42746],[-64.19734,-31.42884],[-64.19958,-31.42933],[-64.20379,-31.42884],[-64.20721,-31.42774],[-64.20767,-31.42774],[-64.20889,-31.42795],[-64.2102,-31.42876],[-64.21039,-31.42917],[-64.21114,-31.42921],[-64.21118,-31.43011],[-64.21095,-31.43007],[-64.21221,-31.43496],[-64.21525,-31.44601],[-64.20917,-31.4454],[-64.2015,-31.44463],[-64.1979,-31.4443],[-64.19341,-31.43398],[-64.19336,-31.4337],[-64.19318,-31.43317],[-64.19313,-31.43304],[-64.19117,-31.42774]]]}},{"type":"Feature","properties":{"codigo":"0011","nombre":"AERONAUTICO"},"geometry":{"type":"Polygon","coordinates":[[[-64.30533,-31.42705],[-64.30533,-31.43655],[-64.2913,-31.4357],[-64.27914,-31.43488],[-64.25342,-31.43317],[-64.25337,-31.42044],[-64.28845,-31.42056],[-64.28854,-31.41889],[-64.29158,-31.41885],[-64.29177,-31.42068],[-64.30519,-31.42064],[-64.30533,-31.42705]]]}},{"type":"Feature","properties":{"codigo":"0012","nombre":"AVELLANEDA"},"geometry":{"type":"Polygon","coordinates":[[[-64.10777,-31.46049],[-64.10455,-31.46364],[-64.10104,-31.46364],[-64.10095,-31.46323],[-64.09627,-31.46323],[-64.09622,-31.46372],[-64.08818,-31.46372],[-64.08813,-31.46315],[-64.08621,-31.46315],[-64.08612,-31.46368],[-64.08215,-31.46364],[-64.08215,-31.46217],[-64.07831,-31.46217],[-64.07822,-31.47114],[-64.06713,-31.47579],[-64.0574,-31.47873],[-64.05736,-31.4713],[-64.0574,-31.46413],[-64.05731,-31.46098],[-64.05731,-31.45727],[-64.06816,-31.45939],[-64.0755,-31.4589],[-64.07864,-31.45878],[-64.08252,-31.4587],[-64.09515,-31.45858],[-64.10113,-31.46013],[-64.10777,-31.46049]]]}},{"type":"Feature","properties":{"codigo":"0013","nombre":"LEANDRO N. ALEM"},"geometry":{"type":"Polygon","coordinates":[[[-64.16324,-31.39001],[-64.16703,-31.39433],[-64.17045,-31.39797],[-64.17148,-31.3996],[-64.16956,-31.39915],[-64.15099,-31.39368],[-64.14879,-31.39295],[-64.14781,-31.3927],[-64.14762,-31.38373],[-64.14772,-31.38157],[-64.15847,-31.38483],[-64.16072,-31.38728],[-64.16324,-31.39001]]]}},{"type":"Feature","properties":{"codigo":"0014","nombre":"ARGUELLO"},"geometry":{"type":"Polygon","coordinates":[[[-64.28905,-31.34677],[-64.28952,-31.34706],[-64.2906,-31.35008],[-64.29004,-31.35261],[-64.29036,-31.35383],[-64.28784,-31.35889],[-64.28686,-31.35885],[-64.28522,-31.35856],[-64.28433,-31.35746],[-64.28344,-31.35587],[-64.28199,-31.35387],[-64.28148,-31.35265],[-64.28138,-31.35138],[-64.28157,-31.35036],[-64.28073,-31.34951],[-64.279,-31.35073],[-64.27605,-31.35191],[-64.27007,-31.35302],[-64.26782,-31.35432],[-64.26553,-31.35591],[-64.26277,-31.35771],[-64.26221,-31.35783],[-64.26123,-31.35709],[-64.25744,-31.35155],[-64.25641,-31.35012],[-64.25538,-31.34845],[-64.25412,-31.34894],[-64.25365,-31.34902],[-64.25164,-31.35012],[-64.25,-31.35138],[-64.24631,-31.35457],[-64.24551,-31.35522],[-64.2435,-31.35673],[-64.24135,-31.35754],[-64.24079,-31.35771],[-64.24682,-31.35236],[-64.24776,-31.35126],[-64.24916,-31.34898],[-64.25066,-31.34629],[-64.25267,-31.3429],[-64.25547,-31.34078],[-64.25959,-31.33796],[-64.26104,-31.3398],[-64.26207,-31.3409],[-64.26314,-31.34245],[-64.2638,-31.34249],[-64.26417,-31.34514],[-64.26436,-31.34771],[-64.27208,-31.34726],[-64.2776,-31.34686],[-64.28115,-31.34673],[-64.28339,-31.34637],[-64.28377,-31.34604],[-64.28503,-31.34551],[-64.28714,-31.34433],[-64.28905,-31.34677]]]}},{"type":"Feature","properties":{"codigo":"004A","nombre":"PUEBLO LAS FLORES"},"geometry":{"type":"Polygon","coordinates":[[[-64.18668,-31.44263],[-64.19781,-31.4443],[-64.19977,-31.44924],[-64.19991,-31.4505],[-64.20033,-31.45079],[-64.20033,-31.4514],[-64.20061,-31.45217],[-64.20131,-31.45503],[-64.20066,-31.45699],[-64.20337,-31.46649],[-64.187,-31.46804],[-64.18668,-31.4434],[-64.18668,-31.44263]]]}},{"type":"Feature","properties":{"codigo":"004B","nombre":"VILLA REVOL"},"geometry":{"type":"Polygon","coordinates":[[[-64.17868,-31.44141],[-64.18668,-31.44263],[-64.18668,-31.4434],[-64.187,-31.46804],[-64.17124,-31.4691],[-64.16886,-31.46918],[-64.1689,-31.46527],[-64.16881,-31.45858],[-64.16876,-31.44524],[-64.16867,-31.44459],[-64.16872,-31.4443],[-64.16872,-31.44047],[-64.17868,-31.44141]]]}},{"type":"Feature","properties":{"codigo":"004C","nombre":"INAUDI"},"geometry":{"type":"Polygon","coordinates":[[[-64.18948,-31.493],[-64.18878,-31.48016],[-64.18859,-31.47322],[-64.18831,-31.47028],[-64.18803,-31.468],[-64.18873,-31.46788],[-64.20337,-31.46649],[-64.2037,-31.46767],[-64.20398,-31.46931],[-64.20463,-31.47192],[-64.20435,-31.47273],[-64.20262,-31.47424],[-64.20318,-31.47967],[-64.20295,-31.47971],[-64.20356,-31.48179],[-64.20548,-31.48778],[-64.20908,-31.49321],[-64.19879,-31.49304],[-64.18948,-31.493]]]}},{"type":"Feature","properties":{"codigo":"004D","nombre":"VILLA EUCARISTICA"},"geometry":{"type":"Polygon","coordinates":[[[-64.16909,-31.48175],[-64.16886,-31.46918],[-64.17185,-31.46906],[-64.18803,-31.468],[-64.18822,-31.46926],[-64.18859,-31.47322],[-64.18855,-31.47473],[-64.18878,-31.48073],[-64.18981,-31.49794],[-64.19131,-31.52429],[-64.16946,-31.52404],[-64.16932,-31.51572],[-64.16932,-31.5123],[-64.16895,-31.49406],[-64.16909,-31.48175]]]}},{"type":"Feature","properties":{"codigo":"004E","nombre":"NUESTRO HOGAR III"},"geometry":{"type":"Polygon","coordinates":[[[-64.20309,-31.49309],[-64.20908,-31.49325],[-64.2139,-31.49998],[-64.2175,-31.5021],[-64.21876,-31.50426],[-64.22012,-31.50614],[-64.22456,-31.51434],[-64.22722,-31.51723],[-64.2319,-31.52421],[-64.20239,-31.52429],[-64.20085,-31.51115],[-64.19991,-31.49916],[-64.19921,-31.49557],[-64.19879,-31.49304],[-64.20309,-31.49309]]]}},{"type":"Feature","properties":{"codigo":"004F","nombre":"CIUDAD OBISPO ANGELELLI"},"geometry":{"type":"Polygon","coordinates":[[[-64.19032,-31.5083],[-64.18958,-31.49313],[-64.19879,-31.49304],[-64.19991,-31.49916],[-64.20239,-31.52429],[-64.19131,-31.52429],[-64.19032,-31.5083]]]}},{"type":"Feature","properties":{"codigo":"005A","nombre":"COLONIA LOLA"},"geometry":{"type":"Polygon","coordinates":[[[-64.10876,-31.42179],[-64.11919,-31.42175],[-64.11923,-31.42754],[-64.10913,-31.42758],[-64.1089,-31.4257],[-64.10876,-31.42179]]]}},{"type":"Feature","properties":{"codigo":"005B","nombre":"DEAN FUNES"},"geometry":{"type":"Polygon","coordinates":[[[-64.11371,-31.44096],[-64.12115,-31.44108],[-64.12471,-31.44381],[-64.11423,-31.45405],[-64.11371,-31.44096]]]}},{"type":"Feature","properties":{"codigo":"005C","nombre":"EMPALME"},"geometry":{"type":"Polygon","coordinates":[[[-64.13462,-31.4306],[-64.13434,-31.42925],[-64.13462,-31.42831],[-64.13471,-31.42668],[-64.14075,-31.42627],[-64.14159,-31.43247],[-64.1393,-31.43276],[-64.13724,-31.43325],[-64.13514,-31.4341],[-64.13359,-31.43525],[-64.13261,-31.43659],[-64.12948,-31.43953],[-64.12732,-31.44104],[-64.12471,-31.44377],[-64.12115,-31.44108],[-64.11512,-31.43529],[-64.11053,-31.43007],[-64.10913,-31.42758],[-64.12732,-31.42746],[-64.13228,-31.43105],[-64.13317,-31.43047],[-64.13462,-31.4306]]]}},{"type":"Feature","properties":{"codigo":"005D","nombre":"MALDONADO"},"geometry":{"type":"Polygon","coordinates":[[[-64.12321,-31.41514],[-64.12326,-31.41363],[-64.12372,-31.41285],[-64.12503,-31.41232],[-64.12644,-31.412],[-64.12616,-31.41122],[-64.12644,-31.40808],[-64.12742,-31.40792],[-64.1277,-31.40828],[-64.12868,-31.40902],[-64.13308,-31.40739],[-64.13499,-31.40718],[-64.1364,-31.4071],[-64.13729,-31.40743],[-64.14042,-31.40727],[-64.14206,-31.40784],[-64.14224,-31.40882],[-64.14154,-31.40983],[-64.14107,-31.41037],[-64.14159,-31.412],[-64.14178,-31.41285],[-64.14206,-31.41379],[-64.14271,-31.41563],[-64.14346,-31.41795],[-64.14365,-31.41946],[-64.13439,-31.4204],[-64.13425,-31.4182],[-64.12775,-31.41811],[-64.12779,-31.42199],[-64.1233,-31.42191],[-64.12321,-31.41514]]]}},{"type":"Feature","properties":{"codigo":"005E","nombre":"VILLA BUSTOS"},"geometry":{"type":"Polygon","coordinates":[[[-64.05717,-31.44039],[-64.05717,-31.43447],[-64.11512,-31.43529],[-64.12115,-31.44108],[-64.10651,-31.44083],[-64.09229,-31.44047],[-64.0698,-31.44002],[-64.06966,-31.44043],[-64.06489,-31.44181],[-64.06437,-31.44234],[-64.06035,-31.44418],[-64.05722,-31.44255],[-64.05717,-31.44039]]]}},{"type":"Feature","properties":{"codigo":"005F","nombre":"RENACIMIENTO"},"geometry":{"type":"Polygon","coordinates":[[[-64.1233,-31.42191],[-64.12059,-31.42187],[-64.11933,-31.42154],[-64.11919,-31.42175],[-64.10838,-31.42179],[-64.05731,-31.42223],[-64.05703,-31.41754],[-64.06002,-31.41673],[-64.06414,-31.4153],[-64.07022,-31.41481],[-64.07335,-31.41342],[-64.0763,-31.41049],[-64.07953,-31.40951],[-64.08336,-31.4091],[-64.08631,-31.40959],[-64.08996,-31.40857],[-64.09561,-31.40947],[-64.09819,-31.40935],[-64.09814,-31.4091],[-64.10852,-31.40335],[-64.11278,-31.40335],[-64.11666,-31.40343],[-64.12176,-31.40339],[-64.12316,-31.40494],[-64.12531,-31.40633],[-64.12644,-31.40808],[-64.12616,-31.41122],[-64.12644,-31.412],[-64.12503,-31.41232],[-64.12372,-31.41285],[-64.12326,-31.41363],[-64.1233,-31.42191]]]}},{"type":"Feature","properties":{"codigo":"005G","nombre":"SAN VICENTE"},"geometry":{"type":"Polygon","coordinates":[[[-64.17414,-31.42276],[-64.17405,-31.42423],[-64.17026,-31.42538],[-64.16834,-31.42525],[-64.15852,-31.42693],[-64.15712,-31.42725],[-64.15324,-31.42848],[-64.14645,-31.43145],[-64.14575,-31.43158],[-64.14159,-31.43247],[-64.14033,-31.42305],[-64.13462,-31.42362],[-64.13425,-31.42036],[-64.14365,-31.41946],[-64.14346,-31.41795],[-64.14533,-31.41791],[-64.14622,-31.41824],[-64.14744,-31.41865],[-64.1486,-31.41893],[-64.14982,-31.41881],[-64.15136,-31.41824],[-64.15342,-31.41763],[-64.15501,-31.41652],[-64.15567,-31.41591],[-64.15665,-31.41628],[-64.15763,-31.41734],[-64.15796,-31.41816],[-64.15903,-31.42097],[-64.15932,-31.42142],[-64.16011,-31.4217],[-64.16062,-31.42207],[-64.16544,-31.42219],[-64.16778,-31.4226],[-64.16918,-31.42317],[-64.16974,-31.42317],[-64.17115,-31.42264],[-64.17297,-31.42297],[-64.17414,-31.42276]]]}},{"type":"Feature","properties":{"codigo":"005H","nombre":"VILLA BOEDO"},"geometry":{"type":"Polygon","coordinates":[[[-64.08032,-31.43484],[-64.09075,-31.42521],[-64.09328,-31.42374],[-64.09632,-31.42244],[-64.09791,-31.42203],[-64.09795,-31.42191],[-64.1088,-31.42179],[-64.1089,-31.4257],[-64.10913,-31.42758],[-64.10969,-31.4286],[-64.11072,-31.43023],[-64.11512,-31.43529],[-64.08032,-31.43484]]]}},{"type":"Feature","properties":{"codigo":"005I","nombre":"COLINAS DEL SUR"},"geometry":{"type":"Polygon","coordinates":[[[-64.09543,-31.45858],[-64.07822,-31.45874],[-64.06755,-31.45939],[-64.05736,-31.45727],[-64.05722,-31.44255],[-64.06035,-31.44418],[-64.06437,-31.44234],[-64.06489,-31.44181],[-64.07031,-31.44002],[-64.11371,-31.44096],[-64.11423,-31.45405],[-64.10777,-31.46049],[-64.10113,-31.46013],[-64.09543,-31.45858]]]}},{"type":"Feature","properties":{"codigo":"006A","nombre":"BAJADA DE PIEDRA"},"geometry":{"type":"Polygon","coordinates":[[[-64.14346,-31.41795],[-64.14107,-31.41037],[-64.14224,-31.40882],[-64.14206,-31.40784],[-64.14042,-31.40727],[-64.13729,-31.40743],[-64.1364,-31.4071],[-64.13294,-31.40747],[-64.12868,-31.40902],[-64.1277,-31.40828],[-64.12742,-31.40792],[-64.12644,-31.40808],[-64.12531,-31.40633],[-64.12414,-31.40555],[-64.12559,-31.40241],[-64.12681,-31.39805],[-64.13004,-31.3985],[-64.13322,-31.3985],[-64.14182,-31.39931],[-64.14715,-31.4009],[-64.14514,-31.41559],[-64.14468,-31.41795],[-64.14346,-31.41795]]]}},{"type":"Feature","properties":{"codigo":"006B","nombre":"CHACRA DE LA MERCED"},"geometry":{"type":"Polygon","coordinates":[[[-64.12559,-31.40241],[-64.12419,-31.40559],[-64.12316,-31.40494],[-64.12176,-31.40339],[-64.10852,-31.40335],[-64.09814,-31.4091],[-64.09463,-31.39332],[-64.10155,-31.39552],[-64.1175,-31.39739],[-64.12274,-31.39772],[-64.12457,-31.39772],[-64.12681,-31.39805],[-64.12559,-31.40241]]]}},{"type":"Feature","properties":{"codigo":"006C","nombre":"GRAL PAZ"},"geometry":{"type":"Polygon","coordinates":[[[-64.1595,-31.4051],[-64.17573,-31.40926],[-64.1754,-31.41098],[-64.17554,-31.41208],[-64.17531,-31.41342],[-64.17568,-31.41465],[-64.1748,-31.41836],[-64.16137,-31.41465],[-64.1602,-31.41306],[-64.15857,-31.41395],[-64.1566,-31.4133],[-64.1595,-31.4051]]]}},{"type":"Feature","properties":{"codigo":"006D","nombre":"JUNIORS"},"geometry":{"type":"Polygon","coordinates":[[[-64.15857,-31.41395],[-64.1602,-31.41306],[-64.16137,-31.41465],[-64.1748,-31.41836],[-64.17433,-31.42138],[-64.17414,-31.42272],[-64.17297,-31.42297],[-64.17115,-31.42264],[-64.16974,-31.42317],[-64.16918,-31.42317],[-64.16783,-31.4226],[-64.16544,-31.42219],[-64.16062,-31.42207],[-64.15997,-31.42166],[-64.15932,-31.42142],[-64.15899,-31.42077],[-64.15875,-31.42011],[-64.15824,-31.41897],[-64.15796,-31.41816],[-64.15763,-31.41734],[-64.15665,-31.41628],[-64.15567,-31.41591],[-64.1566,-31.4133],[-64.15857,-31.41395]]]}},{"type":"Feature","properties":{"codigo":"006E","nombre":"LA FLORESTA SUD"},"geometry":{"type":"Polygon","coordinates":[[[-64.09463,-31.39332],[-64.09819,-31.40935],[-64.09561,-31.40947],[-64.08996,-31.40857],[-64.08631,-31.40959],[-64.08336,-31.4091],[-64.07953,-31.40951],[-64.0763,-31.41049],[-64.07335,-31.41342],[-64.07022,-31.41481],[-64.06414,-31.4153],[-64.06044,-31.41661],[-64.05703,-31.41754],[-64.05553,-31.381],[-64.09463,-31.39332]]]}},{"type":"Feature","properties":{"codigo":"006F","nombre":"YAPEYU"},"geometry":{"type":"Polygon","coordinates":[[[-64.15735,-31.41134],[-64.15567,-31.41591],[-64.15478,-31.41669],[-64.15342,-31.41763],[-64.15146,-31.4182],[-64.14982,-31.41881],[-64.1486,-31.41893],[-64.14622,-31.41824],[-64.14533,-31.41791],[-64.14468,-31.41795],[-64.14571,-31.41171],[-64.14645,-31.41175],[-64.14669,-31.41147],[-64.14856,-31.41159],[-64.14832,-31.40902],[-64.15735,-31.41134]]]}},{"type":"Feature","properties":{"codigo":"007A","nombre":"GUIÑAZU"},"geometry":{"type":"Polygon","coordinates":[[[-64.18714,-31.31622],[-64.18672,-31.3365],[-64.17597,-31.33641],[-64.17545,-31.33556],[-64.17517,-31.31321],[-64.16619,-31.3161],[-64.16371,-31.30778],[-64.18293,-31.3077],[-64.18275,-31.30835],[-64.18312,-31.31329],[-64.18714,-31.31622]]]}},{"type":"Feature","properties":{"codigo":"007B","nombre":"ALTA CORDOBA"},"geometry":{"type":"Polygon","coordinates":[[[-64.17606,-31.37406],[-64.17943,-31.37602],[-64.18934,-31.37476],[-64.18976,-31.37618],[-64.19065,-31.38047],[-64.19126,-31.38304],[-64.19163,-31.3852],[-64.19233,-31.38846],[-64.1921,-31.3903],[-64.18948,-31.39466],[-64.18513,-31.39605],[-64.17592,-31.39841],[-64.17592,-31.38997],[-64.17606,-31.37406]]]}},{"type":"Feature","properties":{"codigo":"007C","nombre":"CNO. A PAJAS BLANCAS"},"geometry":{"type":"Polygon","coordinates":[[[-64.2081,-31.3347],[-64.208,-31.34298],[-64.20585,-31.34653],[-64.20216,-31.3522],[-64.20267,-31.35432],[-64.19472,-31.35338],[-64.1914,-31.35412],[-64.18588,-31.35563],[-64.18518,-31.35249],[-64.18443,-31.34832],[-64.18293,-31.34082],[-64.18219,-31.33646],[-64.19673,-31.33646],[-64.19715,-31.33552],[-64.19813,-31.33462],[-64.19865,-31.33454],[-64.2081,-31.3347]]]}},{"type":"Feature","properties":{"codigo":"007D","nombre":"COFICO"},"geometry":{"type":"Polygon","coordinates":[[[-64.19233,-31.38846],[-64.19262,-31.39046],[-64.19322,-31.39372],[-64.19346,-31.39609],[-64.1935,-31.39776],[-64.19327,-31.39907],[-64.1928,-31.39976],[-64.19224,-31.40098],[-64.19154,-31.40184],[-64.19074,-31.40257],[-64.18981,-31.40319],[-64.18967,-31.4031],[-64.1885,-31.40368],[-64.18621,-31.40429],[-64.18298,-31.40433],[-64.17975,-31.40429],[-64.17826,-31.40457],[-64.17587,-31.40555],[-64.17582,-31.40143],[-64.17592,-31.39841],[-64.18513,-31.39605],[-64.18948,-31.39466],[-64.1921,-31.3903],[-64.19233,-31.38846]]]}},{"type":"Feature","properties":{"codigo":"007E","nombre":"MARQUES DE SOBREMONTE"},"geometry":{"type":"Polygon","coordinates":[[[-64.20267,-31.35432],[-64.20421,-31.36244],[-64.20566,-31.3708],[-64.19958,-31.37235],[-64.18934,-31.3752],[-64.18864,-31.36986],[-64.18813,-31.36778],[-64.18639,-31.35954],[-64.18607,-31.35758],[-64.18588,-31.35563],[-64.19154,-31.35408],[-64.19472,-31.35338],[-64.20267,-31.35432]]]}},{"type":"Feature","properties":{"codigo":"007F","nombre":"JORGE NEWBERY"},"geometry":{"type":"Polygon","coordinates":[[[-64.17587,-31.33637],[-64.18223,-31.33646],[-64.1834,-31.34302],[-64.18593,-31.35607],[-64.17793,-31.35771],[-64.17611,-31.35775],[-64.17606,-31.35024],[-64.17592,-31.34176],[-64.17587,-31.33637]]]}},{"type":"Feature","properties":{"codigo":"007G","nombre":"PANAMERICANO"},"geometry":{"type":"Polygon","coordinates":[[[-64.17779,-31.35771],[-64.18593,-31.35603],[-64.18607,-31.35758],[-64.18696,-31.36215],[-64.18813,-31.36778],[-64.18864,-31.36986],[-64.18934,-31.37476],[-64.18176,-31.37578],[-64.17943,-31.37602],[-64.17606,-31.37406],[-64.1762,-31.369],[-64.17611,-31.36252],[-64.17611,-31.35775],[-64.17779,-31.35771]]]}},{"type":"Feature","properties":{"codigo":"008A","nombre":"PALMAR"},"geometry":{"type":"Polygon","coordinates":[[[-64.12611,-31.38683],[-64.12728,-31.39507],[-64.12709,-31.3967],[-64.12681,-31.39805],[-64.12457,-31.39772],[-64.12288,-31.39772],[-64.1175,-31.39739],[-64.10155,-31.39552],[-64.08589,-31.39058],[-64.08112,-31.3894],[-64.07939,-31.38295],[-64.07733,-31.3739],[-64.08116,-31.37529],[-64.10483,-31.3812],[-64.12611,-31.38683]]]}},{"type":"Feature","properties":{"codigo":"008B","nombre":"PUEYRREDON"},"geometry":{"type":"Polygon","coordinates":[[[-64.1421,-31.39148],[-64.14767,-31.39266],[-64.14879,-31.39295],[-64.15099,-31.39368],[-64.16984,-31.39923],[-64.17105,-31.39956],[-64.17236,-31.39972],[-64.17372,-31.39976],[-64.17508,-31.39964],[-64.17587,-31.39947],[-64.17582,-31.40143],[-64.17587,-31.40555],[-64.17662,-31.40612],[-64.17723,-31.40616],[-64.17615,-31.40751],[-64.17573,-31.40926],[-64.1595,-31.4051],[-64.15366,-31.40359],[-64.15057,-31.40221],[-64.14715,-31.4009],[-64.14182,-31.39931],[-64.1421,-31.39148]]]}},{"type":"Feature","properties":{"codigo":"008C","nombre":"VILLA LOS PINOS"},"geometry":{"type":"Polygon","coordinates":[[[-64.12728,-31.39519],[-64.1262,-31.38712],[-64.1298,-31.38822],[-64.13186,-31.38871],[-64.13677,-31.39009],[-64.13939,-31.3907],[-64.1421,-31.39148],[-64.14182,-31.39931],[-64.13911,-31.39907],[-64.13504,-31.39862],[-64.12985,-31.39845],[-64.12681,-31.39805],[-64.12709,-31.3967],[-64.12728,-31.39519]]]}},{"type":"Feature","properties":{"codigo":"009A","nombre":"LA FRANCE"},"geometry":{"type":"Polygon","coordinates":[[[-64.22044,-31.3646],[-64.22147,-31.36864],[-64.22217,-31.37198],[-64.21871,-31.37304],[-64.21778,-31.37341],[-64.216,-31.3739],[-64.21563,-31.3741],[-64.2138,-31.37459],[-64.21156,-31.37533],[-64.20683,-31.37667],[-64.2058,-31.37084],[-64.20763,-31.37035],[-64.21029,-31.36974],[-64.21301,-31.36876],[-64.21455,-31.36835],[-64.21796,-31.36607],[-64.21853,-31.36586],[-64.21871,-31.3657],[-64.22044,-31.3646]]]}},{"type":"Feature","properties":{"codigo":"009B","nombre":"LAS MARGARITAS"},"geometry":{"type":"Polygon","coordinates":[[[-64.20721,-31.379],[-64.20683,-31.37667],[-64.21563,-31.3741],[-64.216,-31.3739],[-64.22217,-31.37198],[-64.22367,-31.37941],[-64.22306,-31.38006],[-64.22297,-31.38043],[-64.22302,-31.38092],[-64.22344,-31.38136],[-64.22358,-31.38198],[-64.22362,-31.38247],[-64.22236,-31.38332],[-64.22077,-31.38295],[-64.21909,-31.38271],[-64.21759,-31.38238],[-64.21661,-31.3821],[-64.21609,-31.38234],[-64.20852,-31.38459],[-64.20735,-31.38524],[-64.20758,-31.38324],[-64.20749,-31.38287],[-64.2073,-31.38242],[-64.20711,-31.38222],[-64.20683,-31.38173],[-64.20683,-31.38136],[-64.20749,-31.38014],[-64.20721,-31.379]]]}},{"type":"Feature","properties":{"codigo":"009C","nombre":"LOS PARAISOS"},"geometry":{"type":"Polygon","coordinates":[[[-64.19879,-31.37259],[-64.2058,-31.37084],[-64.20683,-31.37667],[-64.20622,-31.37684],[-64.20473,-31.37802],[-64.2044,-31.37806],[-64.20398,-31.37871],[-64.20295,-31.37941],[-64.20164,-31.38051],[-64.2015,-31.38051],[-64.19898,-31.38267],[-64.19631,-31.38479],[-64.19439,-31.38565],[-64.19224,-31.38691],[-64.19196,-31.38671],[-64.19121,-31.38287],[-64.19018,-31.37835],[-64.18981,-31.37647],[-64.18934,-31.3752],[-64.19879,-31.37259]]]}},{"type":"Feature","properties":{"codigo":"009D","nombre":"POETA LUGONES"},"geometry":{"type":"Polygon","coordinates":[[[-64.21951,-31.36174],[-64.22044,-31.3646],[-64.21871,-31.3657],[-64.21455,-31.36835],[-64.21029,-31.36974],[-64.20833,-31.37019],[-64.2058,-31.37084],[-64.20501,-31.36701],[-64.20431,-31.36297],[-64.20267,-31.35432],[-64.20744,-31.35469],[-64.21764,-31.3544],[-64.21909,-31.36093],[-64.21951,-31.36174]]]}},{"type":"Feature","properties":{"codigo":"009E","nombre":"PROVIDENCIA"},"geometry":{"type":"Polygon","coordinates":[[[-64.18873,-31.40612],[-64.1885,-31.40368],[-64.18967,-31.4031],[-64.19168,-31.40412],[-64.19486,-31.404],[-64.19771,-31.39972],[-64.1979,-31.39882],[-64.19865,-31.39801],[-64.20099,-31.39588],[-64.20342,-31.39181],[-64.20421,-31.39205],[-64.20482,-31.39242],[-64.20431,-31.39319],[-64.20286,-31.39499],[-64.20272,-31.3965],[-64.20276,-31.3978],[-64.20333,-31.39866],[-64.20463,-31.39996],[-64.20478,-31.40245],[-64.20403,-31.40351],[-64.20188,-31.40425],[-64.1993,-31.40523],[-64.19654,-31.40588],[-64.18925,-31.40625],[-64.18873,-31.40612]]]}},{"type":"Feature","properties":{"codigo":"009F","nombre":"SAN MARTIN"},"geometry":{"type":"Polygon","coordinates":[[[-64.20622,-31.37684],[-64.20683,-31.37667],[-64.20749,-31.38014],[-64.20683,-31.38136],[-64.20683,-31.38173],[-64.20711,-31.38222],[-64.20739,-31.38259],[-64.20758,-31.38324],[-64.20744,-31.38434],[-64.20744,-31.38536],[-64.20482,-31.38675],[-64.20445,-31.38683],[-64.20314,-31.38968],[-64.20389,-31.39119],[-64.20342,-31.39181],[-64.20085,-31.39601],[-64.1986,-31.39805],[-64.1979,-31.39882],[-64.19771,-31.39972],[-64.19486,-31.404],[-64.19168,-31.40412],[-64.18981,-31.40319],[-64.19074,-31.40257],[-64.19163,-31.4018],[-64.19224,-31.40098],[-64.19262,-31.4],[-64.19327,-31.39907],[-64.19332,-31.39866],[-64.19346,-31.39813],[-64.1935,-31.39764],[-64.19346,-31.39609],[-64.19322,-31.39372],[-64.19196,-31.38671],[-64.19224,-31.38691],[-64.19299,-31.38646],[-64.19626,-31.38479],[-64.19893,-31.38275],[-64.20164,-31.38051],[-64.20384,-31.37884],[-64.20431,-31.37826],[-64.20473,-31.37802],[-64.20622,-31.37684]]]}},{"type":"Feature","properties":{"codigo":"009G","nombre":"VILLA CABRERA"},"geometry":{"type":"Polygon","coordinates":[[[-64.20543,-31.39238],[-64.20482,-31.39242],[-64.20342,-31.39181],[-64.20389,-31.39119],[-64.20314,-31.38968],[-64.20445,-31.38683],[-64.20711,-31.38552],[-64.20735,-31.38524],[-64.20852,-31.38459],[-64.21207,-31.38353],[-64.21661,-31.3821],[-64.22236,-31.38332],[-64.21881,-31.38605],[-64.21432,-31.39042],[-64.21273,-31.39189],[-64.21062,-31.39168],[-64.20777,-31.3916],[-64.20543,-31.39238]]]}},{"type":"Feature","properties":{"codigo":"010A","nombre":"CABILDO"},"geometry":{"type":"Polygon","coordinates":[[[-64.2377,-31.48219],[-64.24224,-31.48203],[-64.25145,-31.49141],[-64.25571,-31.49545],[-64.25865,-31.49904],[-64.26151,-31.5019],[-64.26735,-31.50655],[-64.27376,-31.5125],[-64.28629,-31.52433],[-64.2363,-31.52384],[-64.2341,-31.505],[-64.23279,-31.49072],[-64.23307,-31.48154],[-64.23775,-31.48146],[-64.2377,-31.48219]]]}},{"type":"Feature","properties":{"codigo":"010B","nombre":"CIUDADELA"},"geometry":{"type":"Polygon","coordinates":[[[-64.21525,-31.44601],[-64.22105,-31.44708],[-64.23092,-31.44834],[-64.2391,-31.44801],[-64.24037,-31.44846],[-64.24261,-31.44903],[-64.24252,-31.4516],[-64.21768,-31.45548],[-64.21446,-31.45621],[-64.21165,-31.45666],[-64.20898,-31.45723],[-64.20847,-31.45552],[-64.20496,-31.45621],[-64.20066,-31.45699],[-64.20131,-31.45503],[-64.20033,-31.4514],[-64.20033,-31.45079],[-64.19991,-31.4505],[-64.19982,-31.44985],[-64.19781,-31.4443],[-64.2015,-31.44463],[-64.20917,-31.4454],[-64.21525,-31.44601]]]}},{"type":"Feature","properties":{"codigo":"010C","nombre":"COMERCIAL"},"geometry":{"type":"Polygon","coordinates":[[[-64.22479,-31.48268],[-64.22512,-31.4826],[-64.22905,-31.49945],[-64.23223,-31.51336],[-64.23438,-31.52421],[-64.23204,-31.52421],[-64.22699,-31.51691],[-64.22432,-31.51405],[-64.22012,-31.50614],[-64.21876,-31.50426],[-64.2175,-31.5021],[-64.21375,-31.49994],[-64.21071,-31.49574],[-64.20548,-31.48778],[-64.20356,-31.48179],[-64.20959,-31.48179],[-64.20992,-31.48264],[-64.2153,-31.4826],[-64.22479,-31.48268]]]}},{"type":"Feature","properties":{"codigo":"010D","nombre":"CONGRESO"},"geometry":{"type":"Polygon","coordinates":[[[-64.23307,-31.46796],[-64.22821,-31.46372],[-64.22704,-31.46258],[-64.23789,-31.46172],[-64.24271,-31.46009],[-64.24252,-31.4516],[-64.2507,-31.45185],[-64.25178,-31.4516],[-64.25295,-31.45221],[-64.25515,-31.45234],[-64.25515,-31.45601],[-64.25851,-31.45605],[-64.25833,-31.46343],[-64.25716,-31.46572],[-64.25613,-31.46743],[-64.23859,-31.46763],[-64.23859,-31.47249],[-64.23307,-31.46796]]]}},{"type":"Feature","properties":{"codigo":"010E","nombre":"ESTACION FLORES"},"geometry":{"type":"Polygon","coordinates":[[[-64.25833,-31.46343],[-64.25851,-31.45605],[-64.25515,-31.45601],[-64.25515,-31.45234],[-64.25295,-31.45221],[-64.25178,-31.4516],[-64.2507,-31.45185],[-64.24252,-31.4516],[-64.24261,-31.44928],[-64.24256,-31.44557],[-64.24266,-31.44132],[-64.2428,-31.4348],[-64.24261,-31.43243],[-64.25342,-31.43317],[-64.27914,-31.43488],[-64.30533,-31.43655],[-64.30547,-31.44732],[-64.30566,-31.45164],[-64.30547,-31.47192],[-64.3058,-31.49023],[-64.29976,-31.48864],[-64.29457,-31.4855],[-64.28994,-31.48362],[-64.28241,-31.48069],[-64.27942,-31.48064],[-64.27928,-31.47861],[-64.27446,-31.47351],[-64.27259,-31.47257],[-64.26857,-31.46771],[-64.26427,-31.46519],[-64.26052,-31.46364],[-64.25833,-31.46343]]]}},{"type":"Feature","properties":{"codigo":"010F","nombre":"MATIENZO"},"geometry":{"type":"Polygon","coordinates":[[[-64.23097,-31.44585],[-64.23106,-31.44365],[-64.23073,-31.44047],[-64.23012,-31.43859],[-64.22989,-31.43749],[-64.22961,-31.43667],[-64.22919,-31.4339],[-64.22891,-31.43137],[-64.23677,-31.43202],[-64.24261,-31.43243],[-64.2428,-31.4348],[-64.24266,-31.44132],[-64.24261,-31.44903],[-64.2391,-31.44801],[-64.23691,-31.44809],[-64.23485,-31.44659],[-64.23097,-31.44585]]]}},{"type":"Feature","properties":{"codigo":"010G","nombre":"OBSERVATORIO"},"geometry":{"type":"Polygon","coordinates":[[[-64.18784,-31.41897],[-64.19322,-31.41734],[-64.20029,-31.4153],[-64.20047,-31.41502],[-64.20108,-31.41473],[-64.20183,-31.41416],[-64.20618,-31.41269],[-64.20922,-31.42272],[-64.20945,-31.42399],[-64.21011,-31.42578],[-64.21053,-31.42762],[-64.21109,-31.42848],[-64.21114,-31.42921],[-64.21039,-31.42917],[-64.2102,-31.42876],[-64.20889,-31.42795],[-64.20767,-31.42774],[-64.20721,-31.42774],[-64.20379,-31.42884],[-64.19958,-31.42933],[-64.19734,-31.42884],[-64.19458,-31.42746],[-64.19355,-31.42725],[-64.19299,-31.42693],[-64.19182,-31.42729],[-64.19163,-31.42676],[-64.19084,-31.42705],[-64.18784,-31.41897]]]}},{"type":"Feature","properties":{"codigo":"010H","nombre":"PARQUE CAPITAL"},"geometry":{"type":"Polygon","coordinates":[[[-64.21525,-31.44601],[-64.21361,-31.44014],[-64.21095,-31.43007],[-64.21202,-31.43019],[-64.21436,-31.43031],[-64.22072,-31.43084],[-64.22325,-31.431],[-64.22891,-31.43137],[-64.22919,-31.4339],[-64.22961,-31.43667],[-64.22989,-31.43749],[-64.23012,-31.43875],[-64.23073,-31.44047],[-64.23106,-31.44365],[-64.23097,-31.44585],[-64.23485,-31.44659],[-64.23695,-31.44809],[-64.23092,-31.44834],[-64.22105,-31.44708],[-64.21525,-31.44601]]]}},{"type":"Feature","properties":{"codigo":"010I","nombre":"PARQUE HORIZONTE"},"geometry":{"type":"Polygon","coordinates":[[[-64.20262,-31.46408],[-64.20066,-31.45699],[-64.20847,-31.45552],[-64.20898,-31.45723],[-64.2146,-31.45617],[-64.21768,-31.45548],[-64.24252,-31.4516],[-64.24271,-31.46033],[-64.23789,-31.46172],[-64.22568,-31.4627],[-64.2211,-31.46355],[-64.21675,-31.46445],[-64.21184,-31.46519],[-64.20772,-31.46572],[-64.20337,-31.46649],[-64.20262,-31.46408]]]}},{"type":"Feature","properties":{"codigo":"010J","nombre":"SANTA ISABEL"},"geometry":{"type":"Polygon","coordinates":[[[-64.2276,-31.47114],[-64.22769,-31.46959],[-64.22722,-31.46894],[-64.2261,-31.46837],[-64.22568,-31.468],[-64.22432,-31.46653],[-64.22306,-31.46531],[-64.22217,-31.46404],[-64.22185,-31.46339],[-64.22568,-31.4627],[-64.22704,-31.46258],[-64.23134,-31.46641],[-64.23695,-31.47118],[-64.23859,-31.47249],[-64.23859,-31.46763],[-64.24088,-31.46755],[-64.25613,-31.46743],[-64.25622,-31.47236],[-64.24275,-31.47253],[-64.23934,-31.47261],[-64.24977,-31.4813],[-64.2428,-31.48146],[-64.24224,-31.48203],[-64.2377,-31.48215],[-64.23775,-31.48146],[-64.22732,-31.48162],[-64.22746,-31.47754],[-64.22746,-31.47461],[-64.22736,-31.47179],[-64.2276,-31.47114]]]}},{"type":"Feature","properties":{"codigo":"010K","nombre":"VICOR"},"geometry":{"type":"Polygon","coordinates":[[[-64.27446,-31.47351],[-64.27928,-31.47861],[-64.27942,-31.48064],[-64.28241,-31.48069],[-64.28994,-31.48362],[-64.29457,-31.4855],[-64.29976,-31.48864],[-64.3058,-31.49023],[-64.30575,-31.5001],[-64.30547,-31.52449],[-64.28629,-31.52433],[-64.27254,-31.51136],[-64.26759,-31.50675],[-64.26029,-31.50092],[-64.25865,-31.49904],[-64.25571,-31.49545],[-64.25169,-31.49166],[-64.24224,-31.48203],[-64.2428,-31.48146],[-64.24977,-31.4813],[-64.23934,-31.47261],[-64.25622,-31.47236],[-64.25613,-31.46743],[-64.25833,-31.46343],[-64.26052,-31.46364],[-64.26375,-31.46498],[-64.26834,-31.46759],[-64.27259,-31.47257],[-64.27446,-31.47351]]]}},{"type":"Feature","properties":{"codigo":"010L","nombre":"VILLA EL LIBERTADOR"},"geometry":{"type":"Polygon","coordinates":[[[-64.20295,-31.47971],[-64.20318,-31.47967],[-64.20262,-31.47424],[-64.20435,-31.47273],[-64.20463,-31.472],[-64.20398,-31.46931],[-64.2037,-31.46767],[-64.20337,-31.46649],[-64.20622,-31.466],[-64.20852,-31.46555],[-64.21282,-31.46506],[-64.21675,-31.46445],[-64.22185,-31.46339],[-64.22217,-31.46404],[-64.22236,-31.46425],[-64.22306,-31.46531],[-64.2261,-31.46837],[-64.22722,-31.46894],[-64.22769,-31.46967],[-64.2276,-31.47114],[-64.22732,-31.472],[-64.22751,-31.47681],[-64.22746,-31.47901],[-64.22732,-31.48162],[-64.22484,-31.48162],[-64.22512,-31.48268],[-64.22012,-31.48272],[-64.2153,-31.4826],[-64.20992,-31.48264],[-64.20959,-31.48179],[-64.20767,-31.48175],[-64.20356,-31.48179],[-64.20295,-31.47971]]]}},{"type":"Feature","properties":{"codigo":"011A","nombre":"ALTO ALBERDI"},"geometry":{"type":"Polygon","coordinates":[[[-64.21221,-31.41085],[-64.21015,-31.41159],[-64.20337,-31.39433],[-64.20393,-31.39368],[-64.20482,-31.39242],[-64.20777,-31.3916],[-64.20847,-31.39168],[-64.20945,-31.3916],[-64.21184,-31.39177],[-64.21273,-31.39189],[-64.21563,-31.39307],[-64.21703,-31.39389],[-64.21988,-31.39568],[-64.22091,-31.39519],[-64.22245,-31.39466],[-64.22297,-31.39613],[-64.22423,-31.39915],[-64.22521,-31.40107],[-64.22704,-31.40612],[-64.2203,-31.40824],[-64.21221,-31.41085]]]}},{"type":"Feature","properties":{"codigo":"011B","nombre":"DON BOSCO"},"geometry":{"type":"Polygon","coordinates":[[[-64.30505,-31.37737],[-64.30505,-31.39984],[-64.30519,-31.42064],[-64.29855,-31.4206],[-64.29177,-31.42068],[-64.29158,-31.41885],[-64.28854,-31.41889],[-64.28845,-31.42056],[-64.27456,-31.42052],[-64.26932,-31.42056],[-64.2695,-31.40282],[-64.26894,-31.40119],[-64.26852,-31.40078],[-64.26763,-31.3976],[-64.2674,-31.39597],[-64.26824,-31.39503],[-64.26558,-31.39531],[-64.26548,-31.39438],[-64.2659,-31.39421],[-64.26581,-31.39356],[-64.26483,-31.39193],[-64.26324,-31.3894],[-64.26118,-31.38626],[-64.25809,-31.38128],[-64.2775,-31.3781],[-64.27867,-31.38145],[-64.28129,-31.38446],[-64.28845,-31.3792],[-64.29789,-31.37186],[-64.305,-31.36546],[-64.30505,-31.37737]]]}},{"type":"Feature","properties":{"codigo":"011C","nombre":"LAS PALMAS"},"geometry":{"type":"Polygon","coordinates":[[[-64.22521,-31.40107],[-64.22751,-31.40033],[-64.22704,-31.39825],[-64.22657,-31.39666],[-64.22956,-31.39609],[-64.23312,-31.39552],[-64.23363,-31.39829],[-64.23709,-31.39699],[-64.24051,-31.3958],[-64.24191,-31.39576],[-64.24369,-31.39939],[-64.24617,-31.40461],[-64.24696,-31.41159],[-64.24575,-31.41118],[-64.24289,-31.41175],[-64.24032,-31.412],[-64.23854,-31.41175],[-64.23714,-31.41126],[-64.23429,-31.41196],[-64.23083,-31.41261],[-64.22896,-31.40572],[-64.22704,-31.40612],[-64.22521,-31.40107]]]}},{"type":"Feature","properties":{"codigo":"011D","nombre":"LOS NARANJOS"},"geometry":{"type":"Polygon","coordinates":[[[-64.23045,-31.43149],[-64.22891,-31.43137],[-64.22325,-31.431],[-64.22026,-31.4308],[-64.21418,-31.43027],[-64.21114,-31.43011],[-64.21114,-31.42921],[-64.21109,-31.42848],[-64.21053,-31.42762],[-64.20973,-31.4248],[-64.20922,-31.42272],[-64.21319,-31.42195],[-64.22718,-31.41897],[-64.22863,-31.42419],[-64.22938,-31.42709],[-64.23045,-31.43149]]]}},{"type":"Feature","properties":{"codigo":"011E","nombre":"LOS PLATANOS"},"geometry":{"type":"Polygon","coordinates":[[[-64.22718,-31.41897],[-64.22638,-31.41616],[-64.22582,-31.41359],[-64.22839,-31.41302],[-64.23083,-31.41261],[-64.23429,-31.41196],[-64.23714,-31.41126],[-64.23836,-31.41616],[-64.2392,-31.41905],[-64.24116,-31.4264],[-64.24247,-31.43166],[-64.24261,-31.43243],[-64.23705,-31.43202],[-64.23592,-31.43198],[-64.23045,-31.43149],[-64.22938,-31.42709],[-64.22718,-31.41897]]]}},{"type":"Feature","properties":{"codigo":"011F","nombre":"LOS ROBLES"},"geometry":{"type":"Polygon","coordinates":[[[-64.24191,-31.39576],[-64.24589,-31.39605],[-64.25112,-31.39637],[-64.25253,-31.39642],[-64.25328,-31.39621],[-64.25501,-31.40029],[-64.25968,-31.39809],[-64.258,-31.39454],[-64.25893,-31.39425],[-64.26361,-31.39507],[-64.26483,-31.39535],[-64.26558,-31.39531],[-64.26665,-31.39519],[-64.26754,-31.39515],[-64.26824,-31.39503],[-64.2674,-31.39597],[-64.26754,-31.39727],[-64.26581,-31.39886],[-64.26286,-31.40204],[-64.26169,-31.40217],[-64.26132,-31.40168],[-64.25945,-31.40347],[-64.25655,-31.40474],[-64.25304,-31.40673],[-64.25215,-31.40731],[-64.25098,-31.40784],[-64.24832,-31.40906],[-64.24771,-31.41012],[-64.24687,-31.41077],[-64.24617,-31.40461],[-64.24369,-31.39939],[-64.24191,-31.39576]]]}},{"type":"Feature","properties":{"codigo":"011G","nombre":"PARQUE REPUBLICA"},"geometry":{"type":"Polygon","coordinates":[[[-64.26272,-31.40204],[-64.26375,-31.40107],[-64.26515,-31.39956],[-64.26754,-31.39727],[-64.26796,-31.3989],[-64.26829,-31.39943],[-64.26852,-31.40078],[-64.26894,-31.40119],[-64.2695,-31.40282],[-64.26941,-31.4071],[-64.26946,-31.41143],[-64.26932,-31.41811],[-64.26932,-31.42056],[-64.25566,-31.42052],[-64.25337,-31.42044],[-64.25337,-31.41816],[-64.25346,-31.41616],[-64.25342,-31.41408],[-64.25356,-31.41228],[-64.25356,-31.41147],[-64.25187,-31.41179],[-64.25094,-31.41171],[-64.24822,-31.412],[-64.24696,-31.41159],[-64.24701,-31.41069],[-64.24762,-31.41016],[-64.24832,-31.40906],[-64.25098,-31.40784],[-64.25215,-31.40731],[-64.25304,-31.40673],[-64.25655,-31.40474],[-64.25917,-31.40359],[-64.2601,-31.4029],[-64.26132,-31.40168],[-64.26169,-31.40217],[-64.26272,-31.40204]]]}},{"type":"Feature","properties":{"codigo":"011H","nombre":"QUEBRADA LAS ROSAS"},"geometry":{"type":"Polygon","coordinates":[[[-64.26483,-31.39535],[-64.2624,-31.39487],[-64.25893,-31.39425],[-64.258,-31.39454],[-64.25968,-31.39809],[-64.25501,-31.40029],[-64.25328,-31.39621],[-64.2515,-31.39258],[-64.25033,-31.39005],[-64.24939,-31.38822],[-64.24911,-31.38752],[-64.24822,-31.38569],[-64.24748,-31.3832],[-64.24869,-31.38251],[-64.24911,-31.3803],[-64.24967,-31.37839],[-64.24991,-31.37773],[-64.24902,-31.37525],[-64.24808,-31.37447],[-64.24453,-31.37447],[-64.2435,-31.37545],[-64.24303,-31.37447],[-64.24308,-31.37349],[-64.24303,-31.37035],[-64.24102,-31.36684],[-64.24046,-31.36537],[-64.24088,-31.36411],[-64.24214,-31.36297],[-64.24313,-31.36297],[-64.24495,-31.36313],[-64.24668,-31.36378],[-64.24813,-31.36456],[-64.24921,-31.3655],[-64.25009,-31.36652],[-64.25052,-31.36713],[-64.25098,-31.36766],[-64.25103,-31.36811],[-64.25192,-31.36852],[-64.25183,-31.37092],[-64.25136,-31.37251],[-64.25253,-31.37337],[-64.25328,-31.37419],[-64.25473,-31.37639],[-64.25664,-31.379],[-64.2616,-31.38695],[-64.26324,-31.3894],[-64.26483,-31.39193],[-64.26581,-31.39344],[-64.2659,-31.39421],[-64.26548,-31.39438],[-64.26558,-31.39531],[-64.26483,-31.39535]]]}},{"type":"Feature","properties":{"codigo":"011I","nombre":"RESIDENCIAL SAN ROQUE"},"geometry":{"type":"Polygon","coordinates":[[[-64.2414,-31.42729],[-64.2392,-31.41905],[-64.2385,-31.41673],[-64.23714,-31.41126],[-64.23854,-31.41175],[-64.23896,-31.41192],[-64.24032,-31.412],[-64.24289,-31.41175],[-64.24579,-31.41122],[-64.24822,-31.412],[-64.25094,-31.41171],[-64.25271,-31.41163],[-64.25356,-31.41147],[-64.25346,-31.41314],[-64.25351,-31.42044],[-64.25346,-31.4215],[-64.25346,-31.42464],[-64.25337,-31.42982],[-64.25342,-31.43317],[-64.25173,-31.43308],[-64.24331,-31.43243],[-64.24261,-31.43243],[-64.2414,-31.42729]]]}},{"type":"Feature","properties":{"codigo":"011J","nombre":"SANTA ANA"},"geometry":{"type":"Polygon","coordinates":[[[-64.21483,-31.42162],[-64.20922,-31.42272],[-64.20618,-31.41269],[-64.20651,-31.41261],[-64.21015,-31.41159],[-64.2203,-31.40824],[-64.22704,-31.40612],[-64.22896,-31.40572],[-64.23083,-31.41261],[-64.22582,-31.41359],[-64.22615,-31.41522],[-64.22718,-31.41897],[-64.21483,-31.42162]]]}},{"type":"Feature","properties":{"codigo":"011K","nombre":"VILLA GRAL URQUIZA"},"geometry":{"type":"Polygon","coordinates":[[[-64.22418,-31.39907],[-64.22255,-31.39499],[-64.22718,-31.39332],[-64.22891,-31.39274],[-64.22966,-31.39242],[-64.23209,-31.39156],[-64.23424,-31.3905],[-64.23663,-31.38932],[-64.23709,-31.38948],[-64.24088,-31.38773],[-64.24196,-31.38687],[-64.24359,-31.38565],[-64.24411,-31.38532],[-64.24504,-31.38459],[-64.24748,-31.3832],[-64.24822,-31.38569],[-64.24911,-31.38752],[-64.25328,-31.39621],[-64.25253,-31.39642],[-64.24589,-31.39605],[-64.24191,-31.39576],[-64.24041,-31.39584],[-64.2355,-31.39756],[-64.23363,-31.39829],[-64.23293,-31.39556],[-64.22938,-31.39613],[-64.22657,-31.39666],[-64.22718,-31.3989],[-64.22751,-31.40033],[-64.22521,-31.40107],[-64.22418,-31.39907]]]}},{"type":"Feature","properties":{"codigo":"011L","nombre":"COUNTRYS DEL OESTE"},"geometry":{"type":"Polygon","coordinates":[[[-64.29813,-31.34323],[-64.29925,-31.34143],[-64.30126,-31.33935],[-64.30365,-31.33776],[-64.30683,-31.33621],[-64.30664,-31.33764],[-64.30617,-31.34841],[-64.305,-31.36546],[-64.29789,-31.37186],[-64.28952,-31.34706],[-64.29027,-31.34694],[-64.29163,-31.34588],[-64.29626,-31.34469],[-64.29813,-31.34323]]]}},{"type":"Feature","properties":{"codigo":"011M","nombre":"VALLE ESCONDIDO"},"geometry":{"type":"Polygon","coordinates":[[[-64.25805,-31.38128],[-64.25407,-31.37541],[-64.25183,-31.37288],[-64.25346,-31.37133],[-64.25533,-31.3706],[-64.25795,-31.37043],[-64.26006,-31.37007],[-64.26123,-31.36909],[-64.26249,-31.36721],[-64.26216,-31.3648],[-64.26146,-31.36285],[-64.2609,-31.3606],[-64.2601,-31.3597],[-64.26048,-31.35824],[-64.26277,-31.35771],[-64.26782,-31.35432],[-64.27007,-31.35302],[-64.27605,-31.35191],[-64.279,-31.35073],[-64.28073,-31.34951],[-64.28157,-31.35036],[-64.28138,-31.35138],[-64.28148,-31.35265],[-64.28199,-31.35387],[-64.28283,-31.35497],[-64.28368,-31.35628],[-64.28433,-31.35746],[-64.28522,-31.35856],[-64.28704,-31.35889],[-64.28784,-31.35889],[-64.29036,-31.35383],[-64.29004,-31.35261],[-64.2906,-31.35008],[-64.29789,-31.37186],[-64.28929,-31.37851],[-64.28162,-31.38483],[-64.27867,-31.38145],[-64.2775,-31.3781],[-64.25809,-31.38128],[-64.25805,-31.38128]]]}},{"type":"Feature","properties":{"codigo":"012A","nombre":"CARCANO"},"geometry":{"type":"Polygon","coordinates":[[[-64.12756,-31.46025],[-64.13439,-31.46025],[-64.14122,-31.46021],[-64.1444,-31.46017],[-64.1465,-31.46005],[-64.14809,-31.45996],[-64.14804,-31.46143],[-64.14818,-31.46217],[-64.148,-31.4671],[-64.14804,-31.47901],[-64.13537,-31.47914],[-64.11853,-31.47938],[-64.11886,-31.47551],[-64.10473,-31.47567],[-64.10445,-31.47053],[-64.106,-31.46959],[-64.10735,-31.46926],[-64.10932,-31.46943],[-64.11203,-31.47037],[-64.11559,-31.47326],[-64.11802,-31.47212],[-64.11914,-31.47053],[-64.11937,-31.46033],[-64.12756,-31.46025]]]}},{"type":"Feature","properties":{"codigo":"012B","nombre":"COLON"},"geometry":{"type":"Polygon","coordinates":[[[-64.17017,-31.42921],[-64.17021,-31.42945],[-64.16998,-31.42962],[-64.17007,-31.4319],[-64.17021,-31.43182],[-64.1704,-31.43202],[-64.17031,-31.43227],[-64.17007,-31.43231],[-64.16965,-31.43325],[-64.16923,-31.43394],[-64.16872,-31.43451],[-64.16876,-31.43708],[-64.16872,-31.44047],[-64.15889,-31.44051],[-64.15679,-31.44047],[-64.15529,-31.44039],[-64.15347,-31.44055],[-64.15211,-31.44075],[-64.14996,-31.44132],[-64.14837,-31.44185],[-64.14832,-31.44145],[-64.14383,-31.44149],[-64.14383,-31.44112],[-64.14271,-31.44112],[-64.14281,-31.43802],[-64.14477,-31.43802],[-64.14426,-31.43663],[-64.14411,-31.43602],[-64.14407,-31.43533],[-64.14547,-31.43533],[-64.14547,-31.43329],[-64.14594,-31.43321],[-64.14575,-31.43158],[-64.14627,-31.43149],[-64.15324,-31.42848],[-64.15688,-31.42729],[-64.15824,-31.42693],[-64.16834,-31.42525],[-64.17026,-31.42538],[-64.16946,-31.42697],[-64.16942,-31.42815],[-64.17017,-31.42921]]]}},{"type":"Feature","properties":{"codigo":"012C","nombre":"CORONEL OLMEDO"},"geometry":{"type":"Polygon","coordinates":[[[-64.12868,-31.47918],[-64.14804,-31.47901],[-64.14781,-31.51083],[-64.148,-31.524],[-64.10852,-31.5236],[-64.1081,-31.5158],[-64.1081,-31.51185],[-64.10801,-31.50381],[-64.10689,-31.50336],[-64.10637,-31.49068],[-64.10502,-31.49076],[-64.10473,-31.47567],[-64.11886,-31.47551],[-64.11853,-31.47938],[-64.12868,-31.47918]]]}},{"type":"Feature","properties":{"codigo":"012D","nombre":"JOSE IGNACIO DIAZ"},"geometry":{"type":"Polygon","coordinates":[[[-64.11498,-31.46037],[-64.10796,-31.46029],[-64.11002,-31.45809],[-64.11348,-31.45466],[-64.12471,-31.44377],[-64.12732,-31.44104],[-64.13261,-31.43659],[-64.13359,-31.43525],[-64.13514,-31.4341],[-64.13724,-31.43325],[-64.13934,-31.43276],[-64.14178,-31.43243],[-64.14575,-31.43158],[-64.14594,-31.43321],[-64.14547,-31.43329],[-64.14547,-31.43533],[-64.14407,-31.43533],[-64.14426,-31.43663],[-64.14477,-31.43802],[-64.14281,-31.43802],[-64.14271,-31.44112],[-64.14383,-31.44112],[-64.14383,-31.44149],[-64.14832,-31.44145],[-64.14837,-31.44185],[-64.14818,-31.44805],[-64.14809,-31.45589],[-64.14823,-31.45907],[-64.14809,-31.45996],[-64.1465,-31.46005],[-64.14411,-31.46021],[-64.14122,-31.46021],[-64.13439,-31.46025],[-64.11498,-31.46037]]]}},{"type":"Feature","properties":{"codigo":"012E","nombre":"FERREYRA"},"geometry":{"type":"Polygon","coordinates":[[[-64.10375,-31.46445],[-64.10796,-31.46029],[-64.11937,-31.46033],[-64.11914,-31.47053],[-64.11802,-31.47212],[-64.11559,-31.47326],[-64.11203,-31.47037],[-64.10932,-31.46943],[-64.10735,-31.46926],[-64.10567,-31.46967],[-64.10445,-31.47053],[-64.10473,-31.47567],[-64.10502,-31.49076],[-64.10637,-31.49068],[-64.10689,-31.50336],[-64.10801,-31.50385],[-64.1081,-31.51111],[-64.10848,-31.5236],[-64.05801,-31.52368],[-64.05764,-31.51731],[-64.05759,-31.50838],[-64.06774,-31.49912],[-64.07611,-31.49092],[-64.09164,-31.47595],[-64.10375,-31.46445]]]}},{"type":"Feature","properties":{"codigo":"012F","nombre":"JOSE HERNANDEZ"},"geometry":{"type":"Polygon","coordinates":[[[-64.16221,-31.44051],[-64.16872,-31.44047],[-64.16867,-31.44495],[-64.16876,-31.44524],[-64.16881,-31.45862],[-64.1603,-31.45862],[-64.15581,-31.45866],[-64.14875,-31.45862],[-64.14823,-31.45862],[-64.14814,-31.45715],[-64.14809,-31.45356],[-64.14828,-31.45177],[-64.14837,-31.44185],[-64.1501,-31.44128],[-64.1515,-31.44092],[-64.15347,-31.44055],[-64.15529,-31.44039],[-64.15679,-31.44047],[-64.16221,-31.44051]]]}},{"type":"Feature","properties":{"codigo":"012G","nombre":"ITUZAINGO"},"geometry":{"type":"Polygon","coordinates":[[[-64.10141,-31.46359],[-64.10427,-31.46359],[-64.10445,-31.4638],[-64.09164,-31.47595],[-64.08537,-31.48199],[-64.07878,-31.48187],[-64.07307,-31.48187],[-64.06802,-31.48191],[-64.05956,-31.48175],[-64.05745,-31.48191],[-64.0574,-31.47873],[-64.0618,-31.47726],[-64.06676,-31.47591],[-64.07822,-31.47114],[-64.07822,-31.46837],[-64.0784,-31.46502],[-64.07831,-31.46217],[-64.08093,-31.46221],[-64.08215,-31.46217],[-64.0821,-31.46274],[-64.08215,-31.46364],[-64.08285,-31.46368],[-64.08612,-31.46368],[-64.08621,-31.46315],[-64.08682,-31.46319],[-64.08813,-31.46315],[-64.08818,-31.46372],[-64.09211,-31.46368],[-64.09622,-31.46372],[-64.09627,-31.46323],[-64.10095,-31.46323],[-64.10104,-31.46364],[-64.10141,-31.46359]]]}},{"type":"Feature","properties":{"codigo":"012H","nombre":"LOS CERVECEROS"},"geometry":{"type":"Polygon","coordinates":[[[-64.16881,-31.45858],[-64.1689,-31.46625],[-64.16886,-31.46841],[-64.16895,-31.47139],[-64.169,-31.48199],[-64.16895,-31.49406],[-64.16932,-31.51083],[-64.16942,-31.52413],[-64.14804,-31.52392],[-64.14781,-31.51083],[-64.14804,-31.47901],[-64.14795,-31.4771],[-64.148,-31.47314],[-64.14795,-31.46723],[-64.14818,-31.46217],[-64.14804,-31.46143],[-64.14804,-31.46033],[-64.14809,-31.45996],[-64.14823,-31.45907],[-64.14823,-31.45866],[-64.14875,-31.45862],[-64.15581,-31.45866],[-64.1603,-31.45862],[-64.16881,-31.45858]]]}},{"type":"Feature","properties":{"codigo":"012I","nombre":"CIUDAD DE MIS SUEÑOS"},"geometry":{"type":"Polygon","coordinates":[[[-64.08056,-31.48187],[-64.08252,-31.48195],[-64.08537,-31.48199],[-64.07766,-31.48941],[-64.06386,-31.50283],[-64.05759,-31.50867],[-64.0575,-31.48982],[-64.05764,-31.48158],[-64.05848,-31.48162],[-64.05988,-31.48179],[-64.0625,-31.48179],[-64.06779,-31.48191],[-64.07307,-31.48187],[-64.08056,-31.48187]]]}},{"type":"Feature","properties":{"codigo":"013A","nombre":"AYACUCHO"},"geometry":{"type":"Polygon","coordinates":[[[-64.1667,-31.35913],[-64.17227,-31.35828],[-64.17611,-31.35775],[-64.17611,-31.36252],[-64.1762,-31.36803],[-64.17615,-31.37365],[-64.17601,-31.38112],[-64.17316,-31.38214],[-64.16797,-31.38377],[-64.16708,-31.38157],[-64.16628,-31.37998],[-64.16577,-31.37822],[-64.16554,-31.37761],[-64.16778,-31.377],[-64.16699,-31.37476],[-64.16638,-31.37247],[-64.16572,-31.37068],[-64.16357,-31.36986],[-64.16409,-31.36941],[-64.16577,-31.36799],[-64.16792,-31.36627],[-64.16497,-31.36362],[-64.1631,-31.36183],[-64.16133,-31.36024],[-64.1667,-31.35913]]]}},{"type":"Feature","properties":{"codigo":"013B","nombre":"EL GATEADO"},"geometry":{"type":"Polygon","coordinates":[[[-64.10759,-31.30803],[-64.12756,-31.30803],[-64.13528,-31.30811],[-64.13598,-31.31182],[-64.1357,-31.31431],[-64.13584,-31.31692],[-64.13481,-31.32091],[-64.13574,-31.32732],[-64.13775,-31.34176],[-64.12761,-31.34241],[-64.119,-31.3431],[-64.11834,-31.33902],[-64.11806,-31.33699],[-64.11736,-31.33282],[-64.11353,-31.33299],[-64.11184,-31.33311],[-64.11053,-31.32944],[-64.10413,-31.32936],[-64.10455,-31.32826],[-64.09697,-31.32858],[-64.09753,-31.32275],[-64.0683,-31.32202],[-64.0661,-31.31406],[-64.06498,-31.30782],[-64.10759,-31.30803]]]}},{"type":"Feature","properties":{"codigo":"013C","nombre":"GENERAL BUSTOS"},"geometry":{"type":"Polygon","coordinates":[[[-64.17138,-31.38271],[-64.17601,-31.38112],[-64.17592,-31.38997],[-64.17592,-31.39841],[-64.17587,-31.39943],[-64.17433,-31.39972],[-64.17358,-31.39976],[-64.17236,-31.39972],[-64.17143,-31.3996],[-64.17049,-31.39805],[-64.16853,-31.39601],[-64.16689,-31.39421],[-64.16352,-31.3903],[-64.16151,-31.38805],[-64.16072,-31.38728],[-64.16179,-31.38679],[-64.1653,-31.38573],[-64.16839,-31.38487],[-64.16797,-31.38377],[-64.17138,-31.38271]]]}},{"type":"Feature","properties":{"codigo":"013D","nombre":"JARDIN ARENALES"},"geometry":{"type":"Polygon","coordinates":[[[-64.05502,-31.34877],[-64.05488,-31.33511],[-64.05478,-31.31598],[-64.05469,-31.3079],[-64.06498,-31.30782],[-64.0661,-31.31406],[-64.06713,-31.31777],[-64.06924,-31.32585],[-64.07204,-31.33711],[-64.07686,-31.35661],[-64.07896,-31.36476],[-64.07854,-31.36521],[-64.08116,-31.37529],[-64.07733,-31.3739],[-64.05539,-31.36815],[-64.05502,-31.34877]]]}},{"type":"Feature","properties":{"codigo":"013E","nombre":"LA DOROTEA"},"geometry":{"type":"Polygon","coordinates":[[[-64.09141,-31.35122],[-64.09688,-31.34939],[-64.0995,-31.35114],[-64.10226,-31.35346],[-64.09646,-31.35477],[-64.09973,-31.36766],[-64.10095,-31.36754],[-64.10118,-31.36811],[-64.10665,-31.36692],[-64.1067,-31.36762],[-64.10937,-31.36774],[-64.10946,-31.3688],[-64.11488,-31.3688],[-64.11498,-31.36754],[-64.12269,-31.36766],[-64.12414,-31.37569],[-64.12709,-31.37631],[-64.1269,-31.38312],[-64.12611,-31.38683],[-64.10483,-31.3812],[-64.08116,-31.37529],[-64.07854,-31.36521],[-64.07896,-31.36476],[-64.07611,-31.35375],[-64.08495,-31.35212],[-64.09141,-31.35122]]]}},{"type":"Feature","properties":{"codigo":"013F","nombre":"NUEVA ITALIA"},"geometry":{"type":"Polygon","coordinates":[[[-64.13724,-31.38153],[-64.13743,-31.37826],[-64.14285,-31.37937],[-64.14692,-31.3801],[-64.14772,-31.37977],[-64.14772,-31.38157],[-64.14762,-31.38414],[-64.14772,-31.38924],[-64.14786,-31.3927],[-64.1421,-31.39148],[-64.13878,-31.39058],[-64.13715,-31.39022],[-64.13724,-31.38153]]]}},{"type":"Feature","properties":{"codigo":"013G","nombre":"PARQUE LICEO"},"geometry":{"type":"Polygon","coordinates":[[[-64.148,-31.36244],[-64.14753,-31.36248],[-64.14,-31.36313],[-64.13874,-31.36223],[-64.13869,-31.3522],[-64.13846,-31.34743],[-64.13846,-31.3418],[-64.14238,-31.34139],[-64.1472,-31.34106],[-64.14739,-31.33956],[-64.1494,-31.33902],[-64.1573,-31.33678],[-64.16193,-31.33523],[-64.16956,-31.33323],[-64.1754,-31.33181],[-64.17545,-31.33544],[-64.17587,-31.33625],[-64.17592,-31.34176],[-64.17606,-31.34979],[-64.17611,-31.35775],[-64.16858,-31.35881],[-64.16133,-31.36024],[-64.148,-31.36244]]]}},{"type":"Feature","properties":{"codigo":"013H","nombre":"PATRICIOS"},"geometry":{"type":"Polygon","coordinates":[[[-64.13743,-31.37826],[-64.13289,-31.37741],[-64.13289,-31.37476],[-64.13289,-31.3697],[-64.1328,-31.36929],[-64.13294,-31.3688],[-64.13284,-31.36574],[-64.13289,-31.36423],[-64.13355,-31.36399],[-64.13429,-31.36382],[-64.13673,-31.36346],[-64.14,-31.36313],[-64.14753,-31.36248],[-64.14762,-31.37088],[-64.14762,-31.37578],[-64.14772,-31.37977],[-64.14692,-31.3801],[-64.14285,-31.37937],[-64.13743,-31.37826]]]}},{"type":"Feature","properties":{"codigo":"013I","nombre":"SAN JORGE"},"geometry":{"type":"Polygon","coordinates":[[[-64.12269,-31.36766],[-64.11498,-31.36754],[-64.11488,-31.3688],[-64.10946,-31.3688],[-64.10937,-31.36774],[-64.1067,-31.36762],[-64.10665,-31.36692],[-64.10118,-31.36811],[-64.10095,-31.36754],[-64.09973,-31.36766],[-64.09646,-31.35477],[-64.10226,-31.35346],[-64.10291,-31.35424],[-64.10459,-31.35428],[-64.10689,-31.35612],[-64.10698,-31.35644],[-64.11442,-31.35665],[-64.1146,-31.35624],[-64.12078,-31.35571],[-64.12087,-31.35644],[-64.12569,-31.35799],[-64.13172,-31.35999],[-64.13177,-31.36117],[-64.13294,-31.36121],[-64.13284,-31.36652],[-64.13294,-31.3688],[-64.1328,-31.36929],[-64.13289,-31.3697],[-64.13289,-31.37476],[-64.13289,-31.37741],[-64.12639,-31.37618],[-64.12414,-31.37586],[-64.12349,-31.37219],[-64.12269,-31.36766]]]}},{"type":"Feature","properties":{"codigo":"013J","nombre":"VILLA AZALAIS"},"geometry":{"type":"Polygon","coordinates":[[[-64.14772,-31.37977],[-64.14762,-31.37765],[-64.14762,-31.37578],[-64.14762,-31.3686],[-64.14748,-31.36582],[-64.14753,-31.36248],[-64.14931,-31.36223],[-64.16133,-31.36024],[-64.16792,-31.36627],[-64.1661,-31.3677],[-64.16409,-31.36941],[-64.16357,-31.36986],[-64.16572,-31.37068],[-64.16638,-31.37247],[-64.16699,-31.37476],[-64.16778,-31.377],[-64.16554,-31.37761],[-64.16628,-31.37998],[-64.16708,-31.38157],[-64.16797,-31.38377],[-64.16839,-31.38487],[-64.1631,-31.38638],[-64.16147,-31.38691],[-64.16072,-31.38728],[-64.15847,-31.38483],[-64.14772,-31.38157],[-64.14772,-31.37977]]]}},{"type":"Feature","properties":{"codigo":"013K","nombre":"VILLA ESQUIU"},"geometry":{"type":"Polygon","coordinates":[[[-64.12078,-31.35571],[-64.11442,-31.35624],[-64.11442,-31.35665],[-64.10698,-31.35644],[-64.10698,-31.3562],[-64.10478,-31.35428],[-64.10291,-31.35424],[-64.10226,-31.35346],[-64.09688,-31.34939],[-64.09075,-31.3513],[-64.08495,-31.35212],[-64.07611,-31.35375],[-64.07204,-31.33711],[-64.06849,-31.32202],[-64.09753,-31.32275],[-64.09697,-31.32858],[-64.10455,-31.32826],[-64.10413,-31.32936],[-64.11053,-31.32944],[-64.11184,-31.33311],[-64.11736,-31.33282],[-64.119,-31.3431],[-64.12078,-31.35571]]]}},{"type":"Feature","properties":{"codigo":"013L","nombre":"VILLA GRAN PARQUE"},"geometry":{"type":"Polygon","coordinates":[[[-64.16371,-31.30778],[-64.16619,-31.3161],[-64.17517,-31.31321],[-64.1754,-31.33168],[-64.16193,-31.33523],[-64.15501,-31.33752],[-64.14739,-31.33956],[-64.14715,-31.33833],[-64.14701,-31.32756],[-64.14683,-31.32043],[-64.15015,-31.31957],[-64.14823,-31.31227],[-64.14823,-31.31141],[-64.1479,-31.31088],[-64.14655,-31.3079],[-64.16371,-31.30778]]]}},{"type":"Feature","properties":{"codigo":"013M","nombre":"CAMINO A COLONIA TIROLESA"},"geometry":{"type":"Polygon","coordinates":[[[-64.1472,-31.34106],[-64.14238,-31.34139],[-64.13775,-31.34176],[-64.13715,-31.3365],[-64.13644,-31.33242],[-64.13574,-31.32732],[-64.13481,-31.32091],[-64.13584,-31.31692],[-64.1357,-31.31431],[-64.13598,-31.31182],[-64.13528,-31.30811],[-64.14655,-31.3079],[-64.14823,-31.31141],[-64.15015,-31.31957],[-64.14683,-31.32043],[-64.14701,-31.32756],[-64.14739,-31.33956],[-64.1472,-31.34106]]]}},{"type":"Feature","properties":{"codigo":"013N","nombre":"YOFRE"},"geometry":{"type":"Polygon","coordinates":[[[-64.13743,-31.37826],[-64.13724,-31.38259],[-64.13715,-31.39022],[-64.13429,-31.3894],[-64.13013,-31.3883],[-64.12616,-31.38707],[-64.1269,-31.38275],[-64.12709,-31.37631],[-64.13289,-31.37741],[-64.13743,-31.37826]]]}},{"type":"Feature","properties":{"codigo":"013O","nombre":"CHACHAPOYAS"},"geometry":{"type":"Polygon","coordinates":[[[-64.13775,-31.34176],[-64.13846,-31.3418],[-64.13846,-31.34755],[-64.13869,-31.35518],[-64.13874,-31.36223],[-64.14,-31.36313],[-64.13457,-31.36378],[-64.13289,-31.36423],[-64.13294,-31.36121],[-64.13177,-31.36117],[-64.13172,-31.35999],[-64.12569,-31.35799],[-64.12087,-31.35644],[-64.12031,-31.35273],[-64.11942,-31.34596],[-64.119,-31.3431],[-64.12312,-31.34282],[-64.12761,-31.34241],[-64.13775,-31.34176]]]}},{"type":"Feature","properties":{"codigo":"014A","nombre":"ARGUELLO NORTE"},"geometry":{"type":"Polygon","coordinates":[[[-64.26324,-31.32348],[-64.26791,-31.32565],[-64.26726,-31.32691],[-64.26595,-31.32891],[-64.26534,-31.32964],[-64.26427,-31.33119],[-64.26235,-31.33258],[-64.26235,-31.33303],[-64.25987,-31.33393],[-64.2566,-31.33535],[-64.25487,-31.33584],[-64.25449,-31.3365],[-64.25248,-31.33756],[-64.25183,-31.33833],[-64.25145,-31.33915],[-64.25,-31.33927],[-64.24687,-31.33829],[-64.24172,-31.33707],[-64.24027,-31.33625],[-64.24051,-31.3307],[-64.24065,-31.3245],[-64.24055,-31.32034],[-64.24467,-31.32051],[-64.2529,-31.32059],[-64.26118,-31.32055],[-64.26015,-31.32189],[-64.26324,-31.32348]]]}},{"type":"Feature","properties":{"codigo":"014B","nombre":"ARGUELLO PRIMERO"},"geometry":{"type":"Polygon","coordinates":[[[-64.2776,-31.34686],[-64.27208,-31.34726],[-64.27063,-31.34743],[-64.26721,-31.34763],[-64.26436,-31.34771],[-64.26417,-31.34514],[-64.2638,-31.34249],[-64.26314,-31.34245],[-64.26207,-31.3409],[-64.26104,-31.3398],[-64.26001,-31.33849],[-64.26043,-31.33764],[-64.26202,-31.33666],[-64.26394,-31.33535],[-64.26539,-31.33507],[-64.26698,-31.33519],[-64.26815,-31.33511],[-64.26941,-31.33482],[-64.27086,-31.33433],[-64.27217,-31.33437],[-64.27446,-31.33564],[-64.2776,-31.3367],[-64.27764,-31.34086],[-64.2776,-31.34686]]]}},{"type":"Feature","properties":{"codigo":"014C","nombre":"ARGUELLO SEGUNDO"},"geometry":{"type":"Polygon","coordinates":[[[-64.29336,-31.33902],[-64.2905,-31.3409],[-64.2905,-31.34184],[-64.28873,-31.34319],[-64.28676,-31.34457],[-64.28503,-31.34551],[-64.28377,-31.34604],[-64.28339,-31.34637],[-64.28115,-31.34673],[-64.2776,-31.34686],[-64.27764,-31.34086],[-64.2776,-31.3367],[-64.27647,-31.33637],[-64.27647,-31.3347],[-64.27661,-31.33291],[-64.27755,-31.33262],[-64.27858,-31.33205],[-64.27886,-31.33156],[-64.28059,-31.33103],[-64.28302,-31.33062],[-64.28606,-31.32972],[-64.28817,-31.32919],[-64.28807,-31.33181],[-64.28831,-31.3336],[-64.28812,-31.33662],[-64.29004,-31.33584],[-64.29041,-31.33597],[-64.29172,-31.33523],[-64.29247,-31.33401],[-64.29275,-31.33364],[-64.29284,-31.33148],[-64.29373,-31.33021],[-64.29495,-31.32952],[-64.29607,-31.32924],[-64.29682,-31.32915],[-64.29743,-31.32891],[-64.29827,-31.32879],[-64.30304,-31.32769],[-64.30435,-31.32728],[-64.30472,-31.32642],[-64.30439,-31.32528],[-64.30463,-31.32467],[-64.30519,-31.32361],[-64.30584,-31.32312],[-64.30795,-31.32251],[-64.30804,-31.32667],[-64.30706,-31.32744],[-64.30524,-31.32932],[-64.30439,-31.32997],[-64.30121,-31.33331],[-64.30075,-31.33433],[-64.29771,-31.33629],[-64.29626,-31.33662],[-64.29331,-31.33805],[-64.29336,-31.33902]]]}},{"type":"Feature","properties":{"codigo":"014D","nombre":"CERRO DE LAS ROSAS"},"geometry":{"type":"Polygon","coordinates":[[[-64.24219,-31.37647],[-64.23892,-31.37847],[-64.23541,-31.38059],[-64.2333,-31.38177],[-64.2283,-31.38471],[-64.22708,-31.38536],[-64.22634,-31.38585],[-64.22362,-31.38263],[-64.22362,-31.38247],[-64.22348,-31.38157],[-64.22302,-31.38092],[-64.22306,-31.38006],[-64.22736,-31.37541],[-64.23087,-31.37129],[-64.23298,-31.36913],[-64.24004,-31.35848],[-64.24032,-31.36162],[-64.23999,-31.36285],[-64.24144,-31.3637],[-64.24088,-31.36411],[-64.24046,-31.36537],[-64.24102,-31.36684],[-64.24163,-31.36782],[-64.24303,-31.37035],[-64.24308,-31.37349],[-64.24303,-31.37447],[-64.2435,-31.37545],[-64.24219,-31.37647]]]}},{"type":"Feature","properties":{"codigo":"014E","nombre":"CERRO NORTE"},"geometry":{"type":"Polygon","coordinates":[[[-64.2826,-31.32459],[-64.28255,-31.32552],[-64.28026,-31.32552],[-64.27703,-31.32573],[-64.26773,-31.32605],[-64.26791,-31.32565],[-64.26473,-31.32422],[-64.26015,-31.32189],[-64.26118,-31.32055],[-64.26211,-31.31945],[-64.26983,-31.32324],[-64.27152,-31.32051],[-64.27348,-31.31773],[-64.27432,-31.31655],[-64.28246,-31.32018],[-64.2826,-31.32459]]]}},{"type":"Feature","properties":{"codigo":"014F","nombre":"GRANJA DE FUNES"},"geometry":{"type":"Polygon","coordinates":[[[-64.25697,-31.33523],[-64.2602,-31.33376],[-64.2623,-31.33291],[-64.26235,-31.33303],[-64.26221,-31.33495],[-64.26188,-31.33601],[-64.25912,-31.33739],[-64.25959,-31.33796],[-64.25468,-31.34139],[-64.25267,-31.3429],[-64.24925,-31.34881],[-64.24762,-31.35142],[-64.24663,-31.35253],[-64.242,-31.35669],[-64.24079,-31.35771],[-64.2385,-31.35815],[-64.23812,-31.35628],[-64.23728,-31.35273],[-64.24027,-31.35069],[-64.24041,-31.3449],[-64.24027,-31.34339],[-64.24041,-31.33866],[-64.24027,-31.33625],[-64.24154,-31.33703],[-64.24252,-31.33731],[-64.24687,-31.33829],[-64.24846,-31.33882],[-64.25,-31.33927],[-64.25145,-31.33915],[-64.25183,-31.33833],[-64.25248,-31.33756],[-64.25449,-31.3365],[-64.25487,-31.33584],[-64.25697,-31.33523]]]}},{"type":"Feature","properties":{"codigo":"014G","nombre":"LOS BOULEVARES"},"geometry":{"type":"Polygon","coordinates":[[[-64.2081,-31.3347],[-64.21137,-31.32695],[-64.21675,-31.31594],[-64.22021,-31.30851],[-64.24083,-31.30827],[-64.24065,-31.31349],[-64.24055,-31.32006],[-64.2406,-31.32748],[-64.24027,-31.33625],[-64.24041,-31.33866],[-64.24027,-31.34339],[-64.24037,-31.34433],[-64.24037,-31.34706],[-64.24023,-31.34992],[-64.24027,-31.35065],[-64.23728,-31.35273],[-64.23719,-31.352],[-64.23663,-31.35012],[-64.23606,-31.34726],[-64.23578,-31.34629],[-64.22933,-31.34616],[-64.22582,-31.34629],[-64.22554,-31.34616],[-64.22334,-31.34604],[-64.21969,-31.34604],[-64.21904,-31.35302],[-64.21937,-31.35379],[-64.21764,-31.3544],[-64.20744,-31.35469],[-64.20267,-31.35432],[-64.20216,-31.3522],[-64.20538,-31.34726],[-64.208,-31.34298],[-64.2081,-31.3347]]]}},{"type":"Feature","properties":{"codigo":"014H","nombre":"MERCANTIL"},"geometry":{"type":"Polygon","coordinates":[[[-64.26338,-31.31798],[-64.26118,-31.32055],[-64.24902,-31.32055],[-64.24055,-31.32034],[-64.24065,-31.31349],[-64.24083,-31.30827],[-64.27395,-31.3079],[-64.27133,-31.31174],[-64.26978,-31.31104],[-64.26455,-31.3183],[-64.26338,-31.31798]]]}},{"type":"Feature","properties":{"codigo":"014I","nombre":"SANTA CECILIA"},"geometry":{"type":"Polygon","coordinates":[[[-64.23728,-31.35273],[-64.23812,-31.35628],[-64.23433,-31.35465],[-64.22423,-31.36183],[-64.22044,-31.3646],[-64.21932,-31.36142],[-64.21909,-31.36093],[-64.21764,-31.3544],[-64.21937,-31.35379],[-64.21904,-31.35302],[-64.21937,-31.35041],[-64.21969,-31.34604],[-64.22334,-31.34604],[-64.22554,-31.34616],[-64.22582,-31.34629],[-64.22933,-31.34616],[-64.23578,-31.34629],[-64.23663,-31.35012],[-64.23728,-31.35273]]]}},{"type":"Feature","properties":{"codigo":"014J","nombre":"URCA"},"geometry":{"type":"Polygon","coordinates":[[[-64.22657,-31.38638],[-64.22629,-31.38581],[-64.23648,-31.37994],[-64.24238,-31.37635],[-64.24299,-31.37586],[-64.24453,-31.37447],[-64.24808,-31.37447],[-64.24902,-31.37525],[-64.24991,-31.37773],[-64.24911,-31.3803],[-64.24869,-31.38251],[-64.24504,-31.38459],[-64.24088,-31.38773],[-64.23709,-31.38948],[-64.23663,-31.38932],[-64.23424,-31.3905],[-64.22928,-31.38818],[-64.229,-31.38781],[-64.2283,-31.38777],[-64.22779,-31.38675],[-64.22657,-31.38638]]]}},{"type":"Feature","properties":{"codigo":"014K","nombre":"VILLA ALLENDE PARQUE"},"geometry":{"type":"Polygon","coordinates":[[[-64.2847,-31.30782],[-64.28812,-31.30774],[-64.28826,-31.3119],[-64.2884,-31.32059],[-64.28639,-31.32034],[-64.28311,-31.32047],[-64.28092,-31.31941],[-64.27951,-31.31883],[-64.27432,-31.31655],[-64.27572,-31.31451],[-64.28078,-31.30782],[-64.2847,-31.30782]]]}},{"type":"Feature","properties":{"codigo":"014L","nombre":"VILLA BELGRANO"},"geometry":{"type":"Polygon","coordinates":[[[-64.24135,-31.36366],[-64.23999,-31.36285],[-64.24032,-31.36162],[-64.24004,-31.35848],[-64.24051,-31.35775],[-64.24359,-31.35665],[-64.24631,-31.35457],[-64.24916,-31.35204],[-64.25178,-31.35004],[-64.25365,-31.34902],[-64.25538,-31.34845],[-64.25809,-31.35253],[-64.26123,-31.35709],[-64.26221,-31.35783],[-64.26048,-31.35824],[-64.2601,-31.3597],[-64.2609,-31.3606],[-64.26141,-31.36272],[-64.26211,-31.36468],[-64.26249,-31.36721],[-64.26123,-31.36909],[-64.26006,-31.37007],[-64.25795,-31.37043],[-64.25533,-31.3706],[-64.25346,-31.37133],[-64.25187,-31.37292],[-64.25136,-31.37251],[-64.25183,-31.37092],[-64.25192,-31.36852],[-64.25103,-31.36811],[-64.25098,-31.36766],[-64.25009,-31.36652],[-64.24958,-31.3659],[-64.24902,-31.36533],[-64.24813,-31.36456],[-64.2464,-31.3637],[-64.24495,-31.36313],[-64.24285,-31.36297],[-64.24214,-31.36297],[-64.24135,-31.36366]]]}},{"type":"Feature","properties":{"codigo":"014M","nombre":"VILLA CENTENARIO"},"geometry":{"type":"Polygon","coordinates":[[[-64.24051,-31.35775],[-64.23349,-31.36864],[-64.23059,-31.37166],[-64.22769,-31.37504],[-64.22367,-31.37941],[-64.22185,-31.37051],[-64.22044,-31.3646],[-64.22779,-31.3593],[-64.23433,-31.35465],[-64.23812,-31.35628],[-64.2385,-31.35815],[-64.24051,-31.35775]]]}},{"type":"Feature","properties":{"codigo":"014N","nombre":"VILLA CORNU"},"geometry":{"type":"Polygon","coordinates":[[[-64.28078,-31.30782],[-64.27689,-31.31292],[-64.27348,-31.31773],[-64.2717,-31.32022],[-64.26983,-31.32324],[-64.26618,-31.32149],[-64.26211,-31.31945],[-64.26361,-31.31773],[-64.26455,-31.3183],[-64.26693,-31.31447],[-64.26978,-31.31104],[-64.27133,-31.31174],[-64.27395,-31.3079],[-64.28078,-31.30782]]]}},{"type":"Feature","properties":{"codigo":"014O","nombre":"VILLA 9 DE JULIO"},"geometry":{"type":"Polygon","coordinates":[[[-64.26773,-31.32605],[-64.2782,-31.32565],[-64.28255,-31.32552],[-64.2826,-31.32357],[-64.28246,-31.32018],[-64.28311,-31.32047],[-64.2862,-31.32034],[-64.2884,-31.32059],[-64.28863,-31.32438],[-64.28863,-31.32605],[-64.28882,-31.32703],[-64.28812,-31.32858],[-64.28817,-31.32936],[-64.28597,-31.32977],[-64.28302,-31.33062],[-64.28031,-31.33111],[-64.27909,-31.33148],[-64.27858,-31.33205],[-64.27755,-31.33262],[-64.27661,-31.33291],[-64.27647,-31.3347],[-64.27661,-31.33641],[-64.27446,-31.33564],[-64.27217,-31.33437],[-64.27086,-31.33433],[-64.26941,-31.33482],[-64.2681,-31.33511],[-64.26698,-31.33519],[-64.26539,-31.33507],[-64.2637,-31.33552],[-64.26202,-31.33666],[-64.26001,-31.33849],[-64.25912,-31.33739],[-64.26188,-31.33601],[-64.26235,-31.33303],[-64.26235,-31.33258],[-64.26427,-31.33119],[-64.26515,-31.32989],[-64.26595,-31.32891],[-64.26773,-31.32605]]]}},{"type":"Feature","properties":{"codigo":"014P","nombre":"VILLA RIVERA INDARTE"},"geometry":{"type":"Polygon","coordinates":[[[-64.30608,-31.30758],[-64.30828,-31.30766],[-64.30603,-31.31443],[-64.30828,-31.317],[-64.30804,-31.32255],[-64.30795,-31.32251],[-64.30589,-31.32308],[-64.30519,-31.32361],[-64.30439,-31.32528],[-64.30472,-31.32642],[-64.30435,-31.32728],[-64.30285,-31.32773],[-64.29827,-31.32879],[-64.29743,-31.32891],[-64.29682,-31.32915],[-64.29495,-31.32952],[-64.29373,-31.33021],[-64.29284,-31.33148],[-64.29275,-31.33364],[-64.29172,-31.33523],[-64.29041,-31.33597],[-64.29004,-31.33584],[-64.28812,-31.33662],[-64.28831,-31.3336],[-64.28807,-31.33181],[-64.28817,-31.32919],[-64.28812,-31.32842],[-64.28882,-31.32703],[-64.28868,-31.32658],[-64.28863,-31.32438],[-64.2884,-31.32059],[-64.28831,-31.31728],[-64.28831,-31.31353],[-64.28812,-31.30774],[-64.30608,-31.30758]]]}},{"type":"Feature","properties":{"codigo":"014Q","nombre":"VILLA WARCALDE"},"geometry":{"type":"Polygon","coordinates":[[[-64.30683,-31.33637],[-64.30622,-31.3365],[-64.30341,-31.33792],[-64.30098,-31.33964],[-64.30014,-31.34053],[-64.29906,-31.3418],[-64.29803,-31.34331],[-64.29626,-31.34469],[-64.29158,-31.34592],[-64.29027,-31.34694],[-64.28952,-31.34706],[-64.28905,-31.34677],[-64.28714,-31.34433],[-64.2905,-31.34184],[-64.2905,-31.3409],[-64.29336,-31.33902],[-64.29331,-31.33805],[-64.29626,-31.33662],[-64.29771,-31.33629],[-64.30075,-31.33433],[-64.30121,-31.33331],[-64.30439,-31.32997],[-64.30524,-31.32932],[-64.30706,-31.32744],[-64.30804,-31.32667],[-64.30683,-31.33637]]]}},{"type":"Feature","properties":{"codigo":"010M","nombre":"AMPLIACION CABILDO"},"geometry":{"type":"Polygon","coordinates":[[[-64.23307,-31.48154],[-64.23279,-31.49064],[-64.23611,-31.52429],[-64.23447,-31.52429],[-64.23036,-31.50508],[-64.22563,-31.48476],[-64.22484,-31.48162],[-64.22732,-31.48162],[-64.23307,-31.48154]]]}}]}